start=new Date('2022-11-07T00:00:00.000Z').valueOf();
sats=[{"COUNTRY_CODE":"US","MEAN_ANOMALY":"111.5901","OBJECT_NAME":"STARLINK-4722","TLE_LINE1":"1 53775U 22111C   22311.00001157 -.01147617  00000-0 -27919-1 0  9995","FILE":"3647288","REF_FRAME":"TEME","CENTER_NAME":"EARTH","BSTAR":"-0.02791900000000","REV_AT_EPOCH":"887","OBJECT_ID":"2022-111C","SEMIMAJOR_AXIS":"6814.951","MEAN_MOTION_DDOT":"0.0000000000000","MEAN_MOTION":"15.43151829","GP_ID":"217065438","PERIAPSIS":"435.745","CLASSIFICATION_TYPE":"U","ARG_OF_PERICENTER":"44.9801","MEAN_ELEMENT_THEORY":"SGP4","DECAY_DATE":null,"MEAN_MOTION_DOT":"-0.01147617","INCLINATION":"53.2173","EPHEMERIS_TYPE":"0","SITE":"AFETR","LAUNCH_DATE":"2022-09-11","TLE_LINE2":"2 53775  53.2173 346.9476 0001571  44.9801 111.5901 15.43151829  8879","RA_OF_ASC_NODE":"346.9476","APOAPSIS":"437.887","TIME_SYSTEM":"UTC","RCS_SIZE":"MEDIUM","PERIOD":"93.316","EPOCH":"2022-11-07T00:00:00.999648","OBJECT_TYPE":"PAYLOAD","NORAD_CAT_ID":"53775","ECCENTRICITY":"0.00015710","ELEMENT_SET_NO":"999"},{"REF_FRAME":"TEME","TLE_LINE1":"1 53776U 22111D   22310.58334491 -.01158029  00000-0 -62589-1 0  9999","FILE":"3647066","OBJECT_NAME":"STARLINK-4708","MEAN_ANOMALY":"150.2171","COUNTRY_CODE":"US","MEAN_MOTION":"15.17154000","GP_ID":"217058703","MEAN_MOTION_DDOT":"0.0000000000000","SEMIMAJOR_AXIS":"6892.584","CENTER_NAME":"EARTH","BSTAR":"-0.06258900000000","REV_AT_EPOCH":"130","OBJECT_ID":"2022-111D","INCLINATION":"53.2171","EPHEMERIS_TYPE":"0","SITE":"AFETR","DECAY_DATE":null,"MEAN_MOTION_DOT":"-0.01158029","MEAN_ELEMENT_THEORY":"SGP4","PERIAPSIS":"513.251","CLASSIFICATION_TYPE":"U","ARG_OF_PERICENTER":"47.0467","OBJECT_TYPE":"PAYLOAD","ECCENTRICITY":"0.00017380","ELEMENT_SET_NO":"999","NORAD_CAT_ID":"53776","RCS_SIZE":"LARGE","PERIOD":"94.915","EPOCH":"2022-11-06T14:00:01.000224","APOAPSIS":"515.647","TIME_SYSTEM":"UTC","LAUNCH_DATE":"2022-09-11","TLE_LINE2":"2 53776  53.2171 352.1226 0001738  47.0467 150.2171 15.17154000  1302","RA_OF_ASC_NODE":"352.1226"},{"LAUNCH_DATE":"2022-09-11","TLE_LINE2":"2 53777  53.2173 346.9246 0001981  30.6304 137.4577 15.43707855  8873","RA_OF_ASC_NODE":"346.9246","APOAPSIS":"436.529","TIME_SYSTEM":"UTC","RCS_SIZE":"LARGE","EPOCH":"2022-11-07T00:00:00.999648","PERIOD":"93.282","OBJECT_TYPE":"PAYLOAD","NORAD_CAT_ID":"53777","ELEMENT_SET_NO":"999","ECCENTRICITY":"0.00019810","PERIAPSIS":"433.830","CLASSIFICATION_TYPE":"U","ARG_OF_PERICENTER":"30.6304","MEAN_ELEMENT_THEORY":"SGP4","DECAY_DATE":null,"MEAN_MOTION_DOT":"-0.01144121","INCLINATION":"53.2173","EPHEMERIS_TYPE":"0","SITE":"AFETR","CENTER_NAME":"EARTH","BSTAR":"-0.02730200000000","REV_AT_EPOCH":"887","OBJECT_ID":"2022-111E","MEAN_MOTION_DDOT":"0.0000000000000","SEMIMAJOR_AXIS":"6813.314","MEAN_MOTION":"15.43707855","GP_ID":"217065775","COUNTRY_CODE":"US","MEAN_ANOMALY":"137.4577","OBJECT_NAME":"STARLINK-4664","REF_FRAME":"TEME","TLE_LINE1":"1 53777U 22111E   22311.00001157 -.01144121  00000-0 -27302-1 0  9990","FILE":"3647309"},{"RCS_SIZE":"LARGE","EPOCH":"2022-11-07T00:00:00.999648","PERIOD":"94.794","OBJECT_TYPE":"PAYLOAD","NORAD_CAT_ID":"53778","ECCENTRICITY":"0.00019820","ELEMENT_SET_NO":"999","LAUNCH_DATE":"2022-09-11","RA_OF_ASC_NODE":"349.9480","TLE_LINE2":"2 53778  53.2174 349.9480 0001982  31.4470  64.0555 15.19081209  8830","APOAPSIS":"509.983","TIME_SYSTEM":"UTC","DECAY_DATE":null,"MEAN_MOTION_DOT":"-0.01149021","EPHEMERIS_TYPE":"0","INCLINATION":"53.2174","SITE":"AFETR","PERIAPSIS":"507.253","ARG_OF_PERICENTER":"31.4470","CLASSIFICATION_TYPE":"U","MEAN_ELEMENT_THEORY":"SGP4","GP_ID":"217065690","MEAN_MOTION":"15.19081209","CENTER_NAME":"EARTH","OBJECT_ID":"2022-111F","REV_AT_EPOCH":"883","BSTAR":"-0.05868700000000","MEAN_MOTION_DDOT":"0.0000000000000","SEMIMAJOR_AXIS":"6886.753","OBJECT_NAME":"STARLINK-4709","FILE":"3647309","TLE_LINE1":"1 53778U 22111F   22311.00001157 -.01149021  00000-0 -58687-1 0  9995","REF_FRAME":"TEME","COUNTRY_CODE":"US","MEAN_ANOMALY":"64.0555"},{"OBJECT_TYPE":"PAYLOAD","NORAD_CAT_ID":"53779","ELEMENT_SET_NO":"999","ECCENTRICITY":"0.00018500","RCS_SIZE":"LARGE","PERIOD":"93.265","EPOCH":"2022-11-07T00:00:00.999648","APOAPSIS":"435.613","TIME_SYSTEM":"UTC","LAUNCH_DATE":"2022-09-11","TLE_LINE2":"2 53779  53.2173 346.9138 0001850  36.4182 137.1812 15.43988892  8879","RA_OF_ASC_NODE":"346.9138","INCLINATION":"53.2173","EPHEMERIS_TYPE":"0","SITE":"AFETR","DECAY_DATE":null,"MEAN_MOTION_DOT":"-0.01144372","MEAN_ELEMENT_THEORY":"SGP4","PERIAPSIS":"433.092","CLASSIFICATION_TYPE":"U","ARG_OF_PERICENTER":"36.4182","MEAN_MOTION":"15.43988892","GP_ID":"217065777","SEMIMAJOR_AXIS":"6812.488","MEAN_MOTION_DDOT":"0.0000000000000","CENTER_NAME":"EARTH","REV_AT_EPOCH":"887","BSTAR":"-0.02704900000000","OBJECT_ID":"2022-111G","REF_FRAME":"TEME","TLE_LINE1":"1 53779U 22111G   22311.00001157 -.01144372  00000-0 -27049-1 0  9998","FILE":"3647309","OBJECT_NAME":"STARLINK-4706","MEAN_ANOMALY":"137.1812","COUNTRY_CODE":"US"},{"OBJECT_NAME":"STARLINK-4678","REF_FRAME":"TEME","TLE_LINE1":"1 53780U 22111H   22310.58334491 -.01166438  00000-0 -27177-1 0  9991","FILE":"3647066","COUNTRY_CODE":"US","MEAN_ANOMALY":"320.5288","MEAN_MOTION":"15.44464441","GP_ID":"217059121","CENTER_NAME":"EARTH","REV_AT_EPOCH":"130","BSTAR":"-0.02717700000000","OBJECT_ID":"2022-111H","MEAN_MOTION_DDOT":"0.0000000000000","SEMIMAJOR_AXIS":"6811.089","DECAY_DATE":null,"MEAN_MOTION_DOT":"-0.01166438","INCLINATION":"53.2169","EPHEMERIS_TYPE":"0","SITE":"AFETR","PERIAPSIS":"431.968","CLASSIFICATION_TYPE":"U","ARG_OF_PERICENTER":"44.6039","MEAN_ELEMENT_THEORY":"SGP4","RCS_SIZE":"LARGE","PERIOD":"93.236","EPOCH":"2022-11-06T14:00:01.000224","OBJECT_TYPE":"PAYLOAD","ECCENTRICITY":"0.00014480","NORAD_CAT_ID":"53780","ELEMENT_SET_NO":"999","LAUNCH_DATE":"2022-09-11","TLE_LINE2":"2 53780  53.2169 348.9120 0001448  44.6039 320.5288 15.44464441  1300","RA_OF_ASC_NODE":"348.9120","APOAPSIS":"433.940","TIME_SYSTEM":"UTC"},{"MEAN_MOTION_DDOT":"0.0000000000000","SEMIMAJOR_AXIS":"6810.011","CENTER_NAME":"EARTH","BSTAR":"-0.02633300000000","REV_AT_EPOCH":"887","OBJECT_ID":"2022-111J","MEAN_MOTION":"15.44831405","GP_ID":"217065778","MEAN_ANOMALY":"156.6533","COUNTRY_CODE":"US","TLE_LINE1":"1 53781U 22111J   22311.00001157 -.01146515  00000-0 -26333-1 0  9997","FILE":"3647309","REF_FRAME":"TEME","OBJECT_NAME":"STARLINK-4462","APOAPSIS":"433.198","TIME_SYSTEM":"UTC","LAUNCH_DATE":"2022-09-11","TLE_LINE2":"2 53781  53.2172 346.8820 0001942  32.8536 156.6533 15.44831405  8877","RA_OF_ASC_NODE":"346.8820","OBJECT_TYPE":"PAYLOAD","ELEMENT_SET_NO":"999","NORAD_CAT_ID":"53781","ECCENTRICITY":"0.00019420","RCS_SIZE":"LARGE","PERIOD":"93.214","EPOCH":"2022-11-07T00:00:00.999648","MEAN_ELEMENT_THEORY":"SGP4","PERIAPSIS":"430.553","CLASSIFICATION_TYPE":"U","ARG_OF_PERICENTER":"32.8536","INCLINATION":"53.2172","EPHEMERIS_TYPE":"0","SITE":"AFETR","DECAY_DATE":null,"MEAN_MOTION_DOT":"-0.01146515"},{"MEAN_MOTION":"15.44267597","GP_ID":"217065689","MEAN_MOTION_DDOT":"0.0000000000000","SEMIMAJOR_AXIS":"6811.668","CENTER_NAME":"EARTH","BSTAR":"-0.02677100000000","REV_AT_EPOCH":"887","OBJECT_ID":"2022-111K","TLE_LINE1":"1 53782U 22111K   22311.00001157 -.01143533  00000-0 -26771-1 0  9991","FILE":"3647309","REF_FRAME":"TEME","OBJECT_NAME":"STARLINK-4679","MEAN_ANOMALY":"147.7399","COUNTRY_CODE":"US","OBJECT_TYPE":"PAYLOAD","ECCENTRICITY":"0.00018730","ELEMENT_SET_NO":"999","NORAD_CAT_ID":"53782","RCS_SIZE":"LARGE","PERIOD":"93.248","EPOCH":"2022-11-07T00:00:00.999648","APOAPSIS":"434.809","TIME_SYSTEM":"UTC","LAUNCH_DATE":"2022-09-11","TLE_LINE2":"2 53782  53.2173 346.9025 0001873  31.3139 147.7399 15.44267597  8879","RA_OF_ASC_NODE":"346.9025","INCLINATION":"53.2173","EPHEMERIS_TYPE":"0","SITE":"AFETR","DECAY_DATE":null,"MEAN_MOTION_DOT":"-0.01143533","MEAN_ELEMENT_THEORY":"SGP4","PERIAPSIS":"432.257","CLASSIFICATION_TYPE":"U","ARG_OF_PERICENTER":"31.3139"},{"MEAN_MOTION_DDOT":"0.0000000000000","SEMIMAJOR_AXIS":"6805.237","BSTAR":"-0.02643900000000","REV_AT_EPOCH":"130","OBJECT_ID":"2022-111L","CENTER_NAME":"EARTH","MEAN_MOTION":"15.46456988","GP_ID":"217059741","MEAN_ANOMALY":"7.0110","COUNTRY_CODE":"US","TLE_LINE1":"1 53783U 22111L   22310.58334491 -.01211152  00000-0 -26439-1 0  9998","REF_FRAME":"TEME","FILE":"3647066","OBJECT_NAME":"STARLINK-4536","TIME_SYSTEM":"UTC","APOAPSIS":"428.116","TLE_LINE2":"2 53783  53.2170 348.8436 0001490  32.4340   7.0110 15.46456988  1301","RA_OF_ASC_NODE":"348.8436","LAUNCH_DATE":"2022-09-11","ECCENTRICITY":"0.00014900","NORAD_CAT_ID":"53783","ELEMENT_SET_NO":"999","OBJECT_TYPE":"PAYLOAD","PERIOD":"93.116","EPOCH":"2022-11-06T14:00:01.000224","RCS_SIZE":"MEDIUM","MEAN_ELEMENT_THEORY":"SGP4","CLASSIFICATION_TYPE":"U","ARG_OF_PERICENTER":"32.4340","PERIAPSIS":"426.088","SITE":"AFETR","INCLINATION":"53.2170","EPHEMERIS_TYPE":"0","MEAN_MOTION_DOT":"-0.01211152","DECAY_DATE":null},{"OBJECT_TYPE":"PAYLOAD","ECCENTRICITY":"0.00015380","ELEMENT_SET_NO":"999","NORAD_CAT_ID":"53784","RCS_SIZE":"LARGE","PERIOD":"93.167","EPOCH":"2022-11-06T14:00:01.000224","APOAPSIS":"430.610","TIME_SYSTEM":"UTC","LAUNCH_DATE":"2022-09-11","TLE_LINE2":"2 53784  53.2171 348.8716 0001538  31.7777 353.6849 15.45618458  1303","RA_OF_ASC_NODE":"348.8716","INCLINATION":"53.2171","EPHEMERIS_TYPE":"0","SITE":"AFETR","DECAY_DATE":null,"MEAN_MOTION_DOT":"-0.01211354","MEAN_ELEMENT_THEORY":"SGP4","PERIAPSIS":"428.516","CLASSIFICATION_TYPE":"U","ARG_OF_PERICENTER":"31.7777","MEAN_MOTION":"15.45618458","GP_ID":"217058704","MEAN_MOTION_DDOT":"0.0000000000000","SEMIMAJOR_AXIS":"6807.698","CENTER_NAME":"EARTH","BSTAR":"-0.02722300000000","REV_AT_EPOCH":"130","OBJECT_ID":"2022-111M","REF_FRAME":"TEME","TLE_LINE1":"1 53784U 22111M   22310.58334491 -.01211354  00000-0 -27223-1 0  9995","FILE":"3647066","OBJECT_NAME":"STARLINK-4687","MEAN_ANOMALY":"353.6849","COUNTRY_CODE":"US"}];
